NORAD_CAT_ID,OBJECT_NAME,OBJECT_TYPE,EPOCH,MEAN_MOTION,ECCENTRICITY,INCLINATION,RA_OF_ASC_NODE,ARG_OF_PERICENTER,MEAN_ANOMALY,BSTAR,MEAN_MOTION_DOT,MEAN_MOTION_DDOT,TLE_LINE0,TLE_LINE1,TLE_LINE2,SEMIMAJOR_AXIS,PERIOD,APOGEE,PERIGEE,DECAYED
53009.0,STARLINK-4277,PAYLOAD,2022-10-23 22:00:00,15.08874853,0.0001531999999999,53.2154,218.2548,66.4663,324.3434,-0.0048026,-0.00075988,0.0,0 STARLINK-4277,1 53009U 22076Z   22296.91667824 -.00075988  00000-0 -48026-2 0  9999,2 53009  53.2154 218.2548 0001532  66.4663 324.3434 15.08874853  1307,6917.774,95.435,540.6990000000002,538.5790000000002,0.0
53009.0,STARLINK-4277,PAYLOAD,2022-10-24 06:00:00,15.088010699999998,0.0001513,53.2153,216.7595,56.4964,345.9261,-0.00073652,-0.00011978,0.0,0 STARLINK-4277,1 53009U 22076Z   22297.25001157 -.00011978  00000-0 -73652-3 0  9991,2 53009  53.2153 216.7595 0001513  56.4964 345.9261 15.08801070 17397,6917.999,95.44,540.911,538.818,0.0
53009.0,STARLINK-4277,PAYLOAD,2022-10-24 14:00:01,15.08770863,0.0001351,53.2156,215.2614,62.223,351.7502,0.0025943,0.00041163,0.0,0 STARLINK-4277,1 53009U 22076Z   22297.58334491  .00041163  00000-0  25943-2 0  9993,2 53009  53.2156 215.2614 0001351  62.2230 351.7502 15.08770863  1309,6918.092,95.442,540.891,539.0219999999998,0.0
53009.0,STARLINK-4277,PAYLOAD,2022-10-24 22:00:00,15.08806918,0.0001526,53.2156,213.7659,62.8978,2.5989,0.0017712,0.00027988,0.0,0 STARLINK-4277,1 53009U 22076Z   22297.91667824  .00027988  00000-0  17712-2 0  9993,2 53009  53.2156 213.7659 0001526  62.8978   2.5989 15.08806918  1301,6917.982,95.44,540.9019999999998,538.7909999999998,0.0
53009.0,STARLINK-4277,PAYLOAD,2022-10-25 06:00:00,15.08820005,0.0001643,53.2156,212.2706,56.1238,20.9408,0.0028995,0.00046135,0.0,0 STARLINK-4277,1 53009U 22076Z   22298.25001157  .00046135  00000-0  28995-2 0  9992,2 53009  53.2156 212.2706 0001643  56.1238  20.9408 15.08820005 17549,6917.941999999999,95.439,540.943,538.67,0.0
53009.0,STARLINK-4277,PAYLOAD,2022-10-25 14:00:01,15.08824047,0.0001463,53.2159,210.7725,62.734,25.9278,0.00040677,6.189e-05,0.0,0 STARLINK-4277,1 53009U 22076Z   22298.58334491  .00006189  00000-0  40677-3 0  9995,2 53009  53.2159 210.7725 0001463  62.7340  25.9278 15.08824047 17598,6917.929,95.439,540.806,538.7819999999998,0.0
53009.0,STARLINK-4277,PAYLOAD,2022-10-25 22:00:01,15.08845465,0.0001561999999999,53.2159,209.2769,61.2871,39.0136,-0.0011982,-0.0001931,0.0,0 STARLINK-4277,1 53009U 22076Z   22298.91668981 -.00019310  00000-0 -11982-2 0  9994,2 53009  53.2159 209.2769 0001562  61.2871  39.0136 15.08845465  1300,6917.864000000001,95.437,540.809,538.648,0.0
53009.0,STARLINK-4277,PAYLOAD,2022-10-26 14:00:01,15.08834925,0.0001513,53.216,206.2834,63.4631,59.974,0.0025082,0.0003985,0.0,0 STARLINK-4277,1 53009U 22076Z   22299.58334491  .00039850  00000-0  25082-2 0  9999,2 53009  53.2160 206.2834 0001513  63.4631  59.9740 15.08834925  1307,6917.896,95.438,540.808,538.714,0.0
53009.0,STARLINK-4277,PAYLOAD,2022-10-26 16:00:01,15.08847226,0.000155,53.2159,205.909,65.7953,150.6029,0.0012939,0.00020368,0.0,0 STARLINK-4277,1 53009U 22076Z   22299.66668981  .00020368  00000-0  12939-2 0  9993,2 53009  53.2159 205.9090 0001550  65.7953 150.6029 15.08847226 17762,6917.858,95.437,540.7959999999998,538.651,0.0
53009.0,STARLINK-4277,PAYLOAD,2022-10-26 22:00:00,15.08867012,0.0001676999999999,53.216,204.7879,62.9876,72.0514,-0.0029355,-0.00046738,0.0,0 STARLINK-4277,1 53009U 22076Z   22299.91667824 -.00046738  00000-0 -29355-2 0  9997,2 53009  53.2160 204.7879 0001677  62.9876  72.0514 15.08867012  1303,6917.7980000000025,95.436,540.823,538.503,0.0
53009.0,STARLINK-4277,PAYLOAD,2022-10-27 08:00:01,15.08876036,0.0001696999999999,53.2156,202.9178,59.6594,179.8816,-0.0031359,-0.000499,0.0,0 STARLINK-4277,1 53009U 22076Z   22300.33334491 -.00049900  00000-0 -31359-2 0  9998,2 53009  53.2156 202.9178 0001697  59.6594 179.8816 15.08876036 17867,6917.77,95.435,540.809,538.461,0.0
53009.0,STARLINK-4277,PAYLOAD,2022-10-27 14:00:01,15.08822214,0.0001538,53.2156,201.7942,64.7895,93.5406,0.0020191,0.00031977,0.0,0 STARLINK-4277,1 53009U 22076Z   22300.58335648  .00031977  00000-0  20191-2 0  9995,2 53009  53.2156 201.7942 0001538  64.7895  93.5406 15.08822214  1306,6917.935,95.439,540.864,538.736,0.0
53009.0,STARLINK-4277,PAYLOAD,2022-10-27 22:00:00,15.08855336,0.0001601,53.2157,200.299,62.7978,107.0553,-0.00085506,-0.00013876,0.0,0 STARLINK-4277,1 53009U 22076Z   22300.91667824 -.00013876  00000-0 -85506-3 0  9998,2 53009  53.2157 200.2990 0001601  62.7978 107.0553 15.08855336  1300,6917.834,95.437,540.806,538.591,0.0
53009.0,STARLINK-4277,PAYLOAD,2022-10-28 02:00:01,15.08847786,0.0001653,53.2156,199.5515,59.0791,296.644,0.00022515,3.298e-05,0.0,0 STARLINK-4277,1 53009U 22076Z   22301.08335648  .00003298  00000-0  22515-3 0  9999,2 53009  53.2156 199.5515 0001653  59.0791 296.6440 15.08847786 17971,6917.857,95.437,540.865,538.578,0.0
53009.0,STARLINK-4277,PAYLOAD,2022-10-28 14:00:01,15.08836757,0.000146,53.215,197.305,65.498,127.6463,0.00064089,9.926e-05,0.0,0 STARLINK-4277,1 53009U 22076Z   22301.58335648  .00009926  00000-0  64089-3 0  9990,2 53009  53.2150 197.3050 0001460  65.4980 127.6463 15.08836757  1306,6917.89,95.438,540.765,538.745,0.0
53009.0,STARLINK-4277,PAYLOAD,2022-10-28 22:00:01,15.08840618,0.0001595999999999,53.215,195.81,63.7765,140.9641,-0.00072896,-0.00011871,0.0,0 STARLINK-4277,1 53009U 22076Z   22301.91668981 -.00011871  00000-0 -72896-3 0  9995,2 53009  53.2150 195.8100 0001596  63.7765 140.9641 15.08840618  1304,6917.878000000002,95.438,540.8480000000002,538.639,0.0
53009.0,STARLINK-4277,PAYLOAD,2022-10-29 10:00:00,15.0882814,0.0001475,53.2145,193.5647,64.3485,337.7155,-0.00041554,-6.893e-05,0.0,0 STARLINK-4277,1 53009U 22076Z   22302.41667824 -.00006893  00000-0 -41554-3 0  9991,2 53009  53.2145 193.5647 0001475  64.3485 337.7155 15.08828140 18176,6917.917,95.438,540.802,538.761,0.0
53009.0,STARLINK-4277,PAYLOAD,2022-10-29 12:00:00,15.08809288,0.0001409,53.2145,193.1903,66.4295,68.5347,0.0023694,0.00037591,0.0,0 STARLINK-4277,1 53009U 22076Z   22302.50001157  .00037591  00000-0  23694-2 0  9993,2 53009  53.2145 193.1903 0001409  66.4295  68.5347 15.08809288  1307,6917.974,95.439,540.814,538.865,0.0
53009.0,STARLINK-4277,PAYLOAD,2022-10-29 22:00:01,15.08843512,0.0001563,53.2142,191.3208,64.3723,175.1625,-0.0034299,-0.00054468,0.0,0 STARLINK-4277,1 53009U 22076Z   22302.91668981 -.00054468  00000-0 -34299-2 0  9999,2 53009  53.2142 191.3208 0001563  64.3723 175.1625 15.08843512  1308,6917.87,95.437,540.816,538.653,0.0
53009.0,STARLINK-4277,PAYLOAD,2022-10-30 00:00:00,15.08819735,0.0001615,53.2142,190.9471,62.5951,269.7778,-0.00085086,-0.00013796,0.0,0 STARLINK-4277,1 53009U 22076Z   22303.00001157 -.00013796  00000-0 -85086-3 0  9996,2 53009  53.2142 190.9471 0001615  62.5951 269.7778 15.08819735 18268,6917.941999999999,95.439,540.925,538.69,0.0
53009.0,STARLINK-4277,PAYLOAD,2022-10-30 14:00:01,15.0880746,0.0001519,53.2138,188.3266,69.0238,193.5806,0.0016308,0.00025738,0.0,0 STARLINK-4277,1 53009U 22076Z   22303.58334491  .00025738  00000-0  16308-2 0  9996,2 53009  53.2138 188.3266 0001519  69.0238 193.5806 15.08807460  1304,6917.98,95.44,540.896,538.794,0.0
53009.0,STARLINK-4277,PAYLOAD,2022-10-30 22:00:01,15.08816261,0.0001701,53.2138,186.8317,65.3069,208.9332,-0.0005809,-9.515e-05,0.0,0 STARLINK-4277,1 53009U 22076Z   22303.91668981 -.00009515  00000-0 -58090-3 0  9999,2 53009  53.2138 186.8317 0001701  65.3069 208.9332 15.08816261  1302,6917.953,95.439,540.995,538.641,0.0
53009.0,STARLINK-4277,PAYLOAD,2022-10-31 14:00:01,15.08809212,0.0001659,53.2139,183.8373,70.0391,227.2798,0.0036796,0.00058712,0.0,0 STARLINK-4277,1 53009U 22076Z   22304.58334491  .00058712  00000-0  36796-2 0  9998,2 53009  53.2139 183.8373 0001659  70.0391 227.2798 15.08809212  1303,6917.974,95.44,540.987,538.692,0.0
53009.0,STARLINK-4277,PAYLOAD,2022-10-31 22:00:01,15.08862149,0.0001740999999999,53.214,182.3425,64.5544,244.4103,-0.0024741,-0.00039472,0.0,0 STARLINK-4277,1 53009U 22076Z   22304.91668981 -.00039472  00000-0 -24741-2 0  9990,2 53009  53.2140 182.3425 0001741  64.5544 244.4103 15.08862149  1306,6917.813,95.436,540.882,538.4730000000002,0.0
53009.0,STARLINK-4277,PAYLOAD,2022-11-01 00:00:02,15.08851497,0.0001771999999999,53.2142,181.9687,63.0853,338.784,-0.0015266,-0.0002451,0.0,0 STARLINK-4277,1 53009U 22076Z   22305.00002315 -.00024510  00000-0 -15266-2 0  9993,2 53009  53.2142 181.9687 0001772  63.0853 338.7840 15.08851497 18569,6917.845,95.437,540.936,538.484,0.0
53009.0,STARLINK-4277,PAYLOAD,2022-11-01 14:00:01,15.08826338,0.000161,53.2144,179.3479,68.2192,263.8931,0.0036027999999999,0.00057497,0.0,0 STARLINK-4277,1 53009U 22076Z   22305.58334491  .00057497  00000-0  36028-2 0  9996,2 53009  53.2144 179.3479 0001610  68.2192 263.8931 15.08826338 18650,6917.922,95.438,540.901,538.673,0.0
53009.0,STARLINK-4277,PAYLOAD,2022-11-01 22:00:00,15.08869476,0.0001668,53.2146,177.8532,61.5937,282.1216,-0.0033981,-0.00054007,0.0,0 STARLINK-4277,1 53009U 22076Z   22305.91667824 -.00054007  00000-0 -33981-2 0  9993,2 53009  53.2146 177.8532 0001668  61.5937 282.1216 15.08869476  1305,6917.79,95.436,540.809,538.501,0.0
53009.0,STARLINK-4277,PAYLOAD,2022-11-02 06:00:00,15.08848764,0.0001551999999999,53.2147,176.3564,57.4624,297.8572,-0.0025926,-0.00041323,0.0,0 STARLINK-4277,1 53009U 22076Z   22306.25001157 -.00041323  00000-0 -25926-2 0  9999,2 53009  53.2147 176.3564 0001552  57.4624 297.8572 15.08848764 18756,6917.854,95.437,540.7919999999998,538.645,0.0
53009.0,STARLINK-4277,PAYLOAD,2022-11-02 14:00:01,15.08811043,0.0001457,53.2152,174.8572,66.3815,300.5309,0.0033781999999999,0.00053844,0.0,0 STARLINK-4277,1 53009U 22076Z   22306.58334491  .00053844  00000-0  33782-2 0  9993,2 53009  53.2152 174.8572 0001457  66.3815 300.5309 15.08811043  1302,6917.969,95.439,540.842,538.826,0.0
